[{"OBJECT_NAME":"STARLINK-31297","OBJECT_ID":"2024-044G","EPOCH":"2026-03-09T19:38:03.242112","MEAN_MOTION":15.27538531,"ECCENTRICITY":8.421e-5,"INCLINATION":42.9996,"RA_OF_ASC_NODE":106.4352,"ARG_OF_PERICENTER":114.0139,"MEAN_ANOMALY":246.0801,"EPHEMERIS_TYPE":0,"CLASSIFICATION_TYPE":"U","NORAD_CAT_ID":59158,"ELEMENT_SET_NO":999,"REV_AT_EPOCH":11361,"BSTAR":-3.6130173e-5,"MEAN_MOTION_DOT":-1.255e-5,"MEAN_MOTION_DDOT":0},{"OBJECT_NAME":"FLOCK 4G-29","OBJECT_ID":"2025-009AK","EPOCH":"2026-03-09T19:33:04.927968","MEAN_MOTION":15.27382318,"ECCENTRICITY":0.00013664,"INCLINATION":97.4058,"RA_OF_ASC_NODE":151.3683,"ARG_OF_PERICENTER":288.0502,"MEAN_ANOMALY":72.0588,"EPHEMERIS_TYPE":0,"CLASSIFICATION_TYPE":"U","NORAD_CAT_ID":62642,"ELEMENT_SET_NO":999,"REV_AT_EPOCH":6372,"BSTAR":0.0004183135,"MEAN_MOTION_DOT":0.00011147,"MEAN_MOTION_DDOT":0}]
