STARLINK-31297          
1 59158U 24044G   26068.81809308 -.00001255  00000+0 -36130-4 0  9992
2 59158  42.9996 106.4352 0000842 114.0139 246.0801 15.27538531113616
FLOCK 4G-29             
1 62642U 25009AK  26068.81464037  .00011147  00000+0  41831-3 0  9994
2 62642  97.4058 151.3683 0001366 288.0502  72.0588 15.27382318 63721
